{
  "type": "FeatureCollection",
  "features": [
    {
      "type": "Feature",
      "properties": {
        "norad_id": 30232,
        "name": "FENGYUN 1C DEB",
        "group": "fengyun-1c-debris",
        "lat": -27.622967316113677,
        "lon": -166.75621168850867,
        "alt_km": 593.5704376337571,
        "timestamp": "2025-12-14T09:36:23.311425+00:00",
        "meta_object_name": "FENGYUN 1C DEB",
        "meta_object_id": "1999-025WR",
        "meta_epoch": "2025-12-13T12:32:00.582144",
        "meta_mean_motion": 14.63601851,
        "meta_eccentricity": 0.01359173,
        "meta_inclination": 98.6937,
        "meta_ra_of_asc_node": 187.7254,
        "meta_arg_of_pericenter": 347.3867,
        "meta_mean_anomaly": 41.4182,
        "meta_ephemeris_type": 0,
        "meta_classification_type": "U",
        "meta_norad_cat_id": 30232,
        "meta_element_set_no": 999,
        "meta_rev_at_epoch": 99763,
        "meta_bstar": 0.0010700633,
        "meta_mean_motion_dot": 6.3e-05,
        "meta_mean_motion_ddot": 0,
        "tle_line1": "1 30232U 99025WR  25347.52222896  .00006300  00000+0  10701-2 0  9991",
        "tle_line2": "2 30232  98.6937 187.7254 0135917 347.3867  41.4182 14.63601851997631"
      },
      "geometry": {
        "type": "Point",
        "coordinates": [
          -166.75621168850867,
          -27.622967316113677
        ]
      }
    },
    {
      "type": "Feature",
      "properties": {
        "norad_id": 30234,
        "name": "FENGYUN 1C DEB",
        "group": "fengyun-1c-debris",
        "lat": -44.52450395599169,
        "lon": 7.723536103307989,
        "alt_km": 863.2074470203206,
        "timestamp": "2025-12-14T09:36:23.311435+00:00",
        "meta_object_name": "FENGYUN 1C DEB",
        "meta_object_id": "1999-025WT",
        "meta_epoch": "2025-12-13T14:02:00.246912",
        "meta_mean_motion": 14.16865501,
        "meta_eccentricity": 0.00670116,
        "meta_inclination": 98.6339,
        "meta_ra_of_asc_node": 358.3377,
        "meta_arg_of_pericenter": 72.7892,
        "meta_mean_anomaly": 45.2974,
        "meta_ephemeris_type": 0,
        "meta_classification_type": "U",
        "meta_norad_cat_id": 30234,
        "meta_element_set_no": 999,
        "meta_rev_at_epoch": 97468,
        "meta_bstar": 0.00044521184,
        "meta_mean_motion_dot": 8.7e-06,
        "meta_mean_motion_ddot": 0,
        "tle_line1": "1 30234U 99025WT  25347.58472508  .00000870  00000+0  44521-3 0  9990",
        "tle_line2": "2 30234  98.6339 358.3377 0067011  72.7892  45.2974 14.16865501974680"
      },
      "geometry": {
        "type": "Point",
        "coordinates": [
          7.723536103307989,
          -44.52450395599169
        ]
      }
    },
    {
      "type": "Feature",
      "properties": {
        "norad_id": 30235,
        "name": "FENGYUN 1C DEB",
        "group": "fengyun-1c-debris",
        "lat": -47.487988657227895,
        "lon": 176.84837863371894,
        "alt_km": 759.729657686823,
        "timestamp": "2025-12-14T09:36:23.311445+00:00",
        "meta_object_name": "FENGYUN 1C DEB",
        "meta_object_id": "1999-025WU",
        "meta_epoch": "2025-12-13T12:50:55.372704",
        "meta_mean_motion": 14.08779729,
        "meta_eccentricity": 0.01534109,
        "meta_inclination": 98.7497,
        "meta_ra_of_asc_node": 5.6801,
        "meta_arg_of_pericenter": 236.2906,
        "meta_mean_anomaly": 288.002,
        "meta_ephemeris_type": 0,
        "meta_classification_type": "U",
        "meta_norad_cat_id": 30235,
        "meta_element_set_no": 999,
        "meta_rev_at_epoch": 96904,
        "meta_bstar": 0.00051290371,
        "meta_mean_motion_dot": 9.42e-06,
        "meta_mean_motion_ddot": 0,
        "tle_line1": "1 30235U 99025WU  25347.53536311  .00000942  00000+0  51290-3 0  9990",
        "tle_line2": "2 30235  98.7497   5.6801 0153410 236.2906 288.0020 14.08779729969043"
      },
      "geometry": {
        "type": "Point",
        "coordinates": [
          176.84837863371894,
          -47.487988657227895
        ]
      }
    },
    {
      "type": "Feature",
      "properties": {
        "norad_id": 30237,
        "name": "FENGYUN 1C DEB",
        "group": "fengyun-1c-debris",
        "lat": -6.42464763885922,
        "lon": 92.20392970854327,
        "alt_km": 753.2534779431362,
        "timestamp": "2025-12-14T09:36:23.311456+00:00",
        "meta_object_name": "FENGYUN 1C DEB",
        "meta_object_id": "1999-025WW",
        "meta_epoch": "2025-12-13T05:34:24.195936",
        "meta_mean_motion": 14.40906885,
        "meta_eccentricity": 0.00139369,
        "meta_inclination": 98.8257,
        "meta_ra_of_asc_node": 89.9965,
        "meta_arg_of_pericenter": 303.3144,
        "meta_mean_anomaly": 114.6176,
        "meta_ephemeris_type": 0,
        "meta_classification_type": "U",
        "meta_norad_cat_id": 30237,
        "meta_element_set_no": 999,
        "meta_rev_at_epoch": 97705,
        "meta_bstar": 0.004156015,
        "meta_mean_motion_dot": 0.00013326,
        "meta_mean_motion_ddot": 0,
        "tle_line1": "1 30237U 99025WW  25347.23222449  .00013326  00000+0  41560-2 0  9991",
        "tle_line2": "2 30237  98.8257  89.9965 0013936 303.3144 114.6176 14.40906885977051"
      },
      "geometry": {
        "type": "Point",
        "coordinates": [
          92.20392970854327,
          -6.42464763885922
        ]
      }
    },
    {
      "type": "Feature",
      "properties": {
        "norad_id": 30239,
        "name": "FENGYUN 1C DEB",
        "group": "fengyun-1c-debris",
        "lat": -17.375367691344554,
        "lon": -46.69860101764095,
        "alt_km": 3077.4186823640675,
        "timestamp": "2025-12-14T09:36:23.311483+00:00",
        "meta_object_name": "FENGYUN 1C DEB",
        "meta_object_id": "1999-025WY",
        "meta_epoch": "2025-12-13T15:37:48.304128",
        "meta_mean_motion": 11.38129705,
        "meta_eccentricity": 0.13473881,
        "meta_inclination": 99.5792,
        "meta_ra_of_asc_node": 135.8284,
        "meta_arg_of_pericenter": 28.8583,
        "meta_mean_anomaly": 338.0631,
        "meta_ephemeris_type": 0,
        "meta_classification_type": "U",
        "meta_norad_cat_id": 30239,
        "meta_element_set_no": 999,
        "meta_rev_at_epoch": 54545,
        "meta_bstar": 0.019482233,
        "meta_mean_motion_dot": 6.493e-05,
        "meta_mean_motion_ddot": 0,
        "tle_line1": "1 30239U 99025WY  25347.65125352  .00006493  00000+0  19482-1 0  9998",
        "tle_line2": "2 30239  99.5792 135.8284 1347388  28.8583 338.0631 11.38129705545453"
      },
      "geometry": {
        "type": "Point",
        "coordinates": [
          -46.69860101764095,
          -17.375367691344554
        ]
      }
    },
    {
      "type": "Feature",
      "properties": {
        "norad_id": 30241,
        "name": "FENGYUN 1C DEB",
        "group": "fengyun-1c-debris",
        "lat": 78.91664296787442,
        "lon": -3.3439737262059372,
        "alt_km": 753.3348709668553,
        "timestamp": "2025-12-14T09:36:23.311494+00:00",
        "meta_object_name": "FENGYUN 1C DEB",
        "meta_object_id": "1999-025XA",
        "meta_epoch": "2025-12-13T07:53:44.258208",
        "meta_mean_motion": 14.09547656,
        "meta_eccentricity": 0.01468163,
        "meta_inclination": 99.1485,
        "meta_ra_of_asc_node": 120.2194,
        "meta_arg_of_pericenter": 79.464,
        "meta_mean_anomaly": 343.1268,
        "meta_ephemeris_type": 0,
        "meta_classification_type": "U",
        "meta_norad_cat_id": 30241,
        "meta_element_set_no": 999,
        "meta_rev_at_epoch": 96920,
        "meta_bstar": 0.00042212771,
        "meta_mean_motion_dot": 7.71e-06,
        "meta_mean_motion_ddot": 0,
        "tle_line1": "1 30241U 99025XA  25347.32898447  .00000771  00000+0  42213-3 0  9990",
        "tle_line2": "2 30241  99.1485 120.2194 0146816  79.4640 343.1268 14.09547656969203"
      },
      "geometry": {
        "type": "Point",
        "coordinates": [
          -3.3439737262059372,
          78.91664296787442
        ]
      }
    },
    {
      "type": "Feature",
      "properties": {
        "norad_id": 30242,
        "name": "FENGYUN 1C DEB",
        "group": "fengyun-1c-debris",
        "lat": 75.98527035957667,
        "lon": -15.220776239848854,
        "alt_km": 819.134061476333,
        "timestamp": "2025-12-14T09:36:23.311504+00:00",
        "meta_object_name": "FENGYUN 1C DEB",
        "meta_object_id": "1999-025XB",
        "meta_epoch": "2025-12-13T15:09:39.000960",
        "meta_mean_motion": 14.17640542,
        "meta_eccentricity": 0.00110411,
        "meta_inclination": 98.6835,
        "meta_ra_of_asc_node": 21.7821,
        "meta_arg_of_pericenter": 52.4419,
        "meta_mean_anomaly": 66.289,
        "meta_ephemeris_type": 0,
        "meta_classification_type": "U",
        "meta_norad_cat_id": 30242,
        "meta_element_set_no": 999,
        "meta_rev_at_epoch": 97439,
        "meta_bstar": 0.00077984295,
        "meta_mean_motion_dot": 1.544e-05,
        "meta_mean_motion_ddot": 0,
        "tle_line1": "1 30242U 99025XB  25347.63170140  .00001544  00000+0  77984-3 0  9990",
        "tle_line2": "2 30242  98.6835  21.7821 0011041  52.4419  66.2890 14.17640542974392"
      },
      "geometry": {
        "type": "Point",
        "coordinates": [
          -15.220776239848854,
          75.98527035957667
        ]
      }
    }
  ]
}